{
    "links": {
        "self": "http://www.neowsapp.com/rest/v1/neo/3661317?api_key=iIulBulltgU6a56xZRHN4H3l9WmuAYTsLGpBGhQ2"
    },
    "id": "3661317",
    "neo_reference_id": "3661317",
    "name": "(2014 CA3)",
    "designation": "2014 CA3",
    "nasa_jpl_url": "http://ssd.jpl.nasa.gov/sbdb.cgi?sstr=3661317",
    "absolute_magnitude_h": 24.2,
    "estimated_diameter": {
        "kilometers": {
            "estimated_diameter_min": 0.0384197891,
            "estimated_diameter_max": 0.0859092601
        },
        "meters": {
            "estimated_diameter_min": 38.4197891064,
            "estimated_diameter_max": 85.9092601232
        },
        "miles": {
            "estimated_diameter_min": 0.0238729428,
            "estimated_diameter_max": 0.0533815229
        },
        "feet": {
            "estimated_diameter_min": 126.0491808919,
            "estimated_diameter_max": 281.8545369825
        }
    },
    "is_potentially_hazardous_asteroid": false,
    "close_approach_data": [
        {
            "close_approach_date": "2014-02-12",
            "close_approach_date_full": "2014-Feb-12 06:47",
            "epoch_date_close_approach": 1392187620000,
            "relative_velocity": {
                "kilometers_per_second": "6.2988278836",
                "kilometers_per_hour": "22675.7803808603",
                "miles_per_hour": "14089.8480927629"
            },
            "miss_distance": {
                "astronomical": "0.086228524",
                "lunar": "33.542895836",
                "kilometers": "12899603.52364388",
                "miles": "8015441.948610344"
            },
            "orbiting_body": "Earth"
        }
    ],
    "orbital_data": {
        "orbit_id": "10",
        "orbit_determination_date": "2017-04-06 08:42:34",
        "first_observation_date": "2014-02-06",
        "last_observation_date": "2014-02-22",
        "data_arc_in_days": 16,
        "observations_used": 30,
        "orbit_uncertainty": "8",
        "minimum_orbit_intersection": ".0813929",
        "jupiter_tisserand_invariant": "4.742",
        "epoch_osculation": "2456700.5",
        "eccentricity": ".2704142467343307",
        "semi_major_axis": "1.382906479853278",
        "inclination": "9.490387699173855",
        "ascending_node_longitude": "123.0859564961424",
        "orbital_period": "594.0016402993299",
        "perihelion_distance": "1.008948865799729",
        "perihelion_argument": "53.0816994513081",
        "aphelion_distance": "1.756864093906827",
        "perihelion_time": "2456732.873970890564",
        "mean_anomaly": "340.3794657625356",
        "mean_motion": ".6060589324611771",
        "equinox": "J2000",
        "orbit_class": {
            "orbit_class_type": "APO",
            "orbit_class_description": "Near-Earth asteroid orbits which cross the Earth’s orbit similar to that of 1862 Apollo",
            "orbit_class_range": "a (semi-major axis) > 1.0 AU; q (perihelion) < 1.017 AU"
        }
    },
    "is_sentry_object": false
}